DMSP 5D-3 F16 (USA 172) 
1 28054U 03048A   26036.94725883  .00000183  00000+0  11898-3 0  9998
2 28054  99.0017  59.8321 0007713 152.5420 268.7423 14.14449591150934
METEOSAT-9 (MSG-2)      
1 28912U 05049B   26036.20844294  .00000120  00000+0  00000+0 0  9991
2 28912   9.0628  55.4535 0001324 209.8773 350.6932  1.00277106  5672
DMSP 5D-3 F17 (USA 191) 
1 29522U 06050A   26036.92782015  .00000215  00000+0  13357-3 0  9991
2 29522  98.7406  46.1720 0011105  73.1223 287.1168 14.14949189993859
FENGYUN 3A              
1 32958U 08026A   26036.94647309  .00000156  00000+0  94371-4 0  9991
2 32958  98.6761 340.3295 0009317 140.3941 219.7917 14.19536156916782
GOES 14                 
1 35491U 09033A   26036.74162074  .00000124  00000+0  00000+0 0  9990
2 35491   1.3488  84.7942 0001622 276.4132 258.2189  1.00111932  5275
DMSP 5D-3 F18 (USA 210) 
1 35951U 09057A   26036.95926138  .00000358  00000+0  20882-3 0  9992
2 35951  98.8911  18.1065 0010018 264.2708  95.7322 14.14814209841039
EWS-G2 (GOES 15)        
1 36411U 10008A   26036.65239236  .00000034  00000+0  00000+0 0  9992
2 36411   0.9462  85.6963 0004813 200.3515 146.1711  1.00275683 58317
COMS 1                  
1 36744U 10032A   26036.93809516 -.00000346  00000+0  00000+0 0  9990
2 36744   4.4714  77.2801 0001106 258.8603 265.8110  1.00270868 49773
FENGYUN 3B              
1 37214U 10059A   26036.97888503  .00000230  00000+0  14250-3 0  9996
2 37214  98.9822  82.3227 0021847 196.2336 230.3293 14.14809027788879
SUOMI NPP               
1 37849U 11061A   26036.95449042  .00000149  00000+0  91809-4 0  9998
2 37849  98.7835 338.8165 0001708  24.4424 335.6833 14.19534159739825
METEOSAT-10 (MSG-3)     
1 38552U 12035B   26036.91270168 -.00000009  00000+0  00000+0 0  9993
2 38552   4.3608  61.5807 0002325 285.5148 117.5063  1.00272720 49544
METOP-B                 
1 38771U 12049A   26036.98024568  .00000170  00000+0  97627-4 0  9993
2 38771  98.6709  90.9806 0002488  29.6623 330.4695 14.21433791694621
INSAT-3D                
1 39216U 13038B   26036.93835516 -.00000340  00000+0  00000+0 0  9999
2 39216   1.5874  84.3094 0001768 217.8303 301.2169  1.00274071 45768
FENGYUN 3C              
1 39260U 13052A   26036.94272100  .00000186  00000+0  11579-3 0  9993
2 39260  98.4838  16.9475 0015499  44.3993 315.8421 14.15718043639998
METEOR-M 2              
1 40069U 14037A   26036.93657419  .00000063  00000+0  47831-4 0  9990
2 40069  98.4976  17.4261 0006834  62.2613 297.9257 14.21413938600672
HIMAWARI-8              
1 40267U 14060A   26036.94052184 -.00000277  00000+0  00000+0 0  9995
2 40267   0.0469 251.9580 0000909  78.0145 285.3073  1.00270568 41443
FENGYUN 2G              
1 40367U 14090A   26036.66665698 -.00000302  00000+0  00000+0 0  9997
2 40367   5.3064  74.4296 0001632 196.7283 204.0212  1.00263387 40689
METEOSAT-11 (MSG-4)     
1 40732U 15034A   26036.91460836  .00000062  00000+0  00000+0 0  9999
2 40732   2.8710  71.8338 0001172 241.7640 161.3542  1.00267859  5905
ELEKTRO-L 2             
1 41105U 15074A   26037.00602828 -.00000119  00000+0  00000+0 0  9992
2 41105   6.3643  72.1540 0003640 228.9505 182.7021  1.00272170 37199
INSAT-3DR               
1 41752U 16054A   26036.85602137 -.00000077  00000+0  00000+0 0  9997
2 41752   0.0535  93.8893 0013801 184.6455 239.6021  1.00271515 34507
HIMAWARI-9              
1 41836U 16064A   26036.94052184 -.00000276  00000+0  00000+0 0  9993
2 41836   0.0120 140.3955 0001060 202.8151 272.1880  1.00271474 33897
GOES 16                 
1 41866U 16071A   26036.89190157 -.00000091  00000+0  00000+0 0  9996
2 41866   0.1472  94.1845 0002883 198.2142  59.9911  1.00271502 33783
FENGYUN 4A              
1 41882U 16077A   26036.93722848 -.00000358  00000+0  00000+0 0  9999
2 41882   1.9889  81.7930 0006361 133.3026  22.0577  1.00276422 33612
CYGFM05                 
1 41884U 16078A   26036.45985148  .00031558  00000+0  53380-3 0  9991
2 41884  34.9594  48.9946 0007496 323.8363  36.1853 15.50531201508254
CYGFM04                 
1 41885U 16078B   26036.38028900  .00038188  00000+0  58294-3 0  9993
2 41885  34.9348  22.6373 0005958 350.0550  10.0055 15.53360503508439
CYGFM02                 
1 41886U 16078C   26036.38725953  .00041374  00000+0  58875-3 0  9992
2 41886  34.9435  20.1120 0007023 353.2519   6.8110 15.55253829508579
CYGFM01                 
1 41887U 16078D   26036.43134100  .00032301  00000+0  53871-3 0  9998
2 41887  34.9422  51.1430 0007591 314.9770  45.0337 15.50921337508192
CYGFM08                 
1 41888U 16078E   26036.37719623  .00035483  00000+0  56267-3 0  9997
2 41888  34.9456  33.8070 0008288 341.5251  18.5170 15.52303604508420
CYGFM07                 
1 41890U 16078G   26036.35775007  .00036785  00000+0  57000-3 0  9998
2 41890  34.9473  22.5920 0006169 357.8645   2.2051 15.52953627508440
CYGFM03                 
1 41891U 16078H   26036.64833879  .00035190  00000+0  54748-3 0  9998
2 41891  34.9430  22.6371 0006108 342.4231  17.6280 15.52849976508466
FENGYUN 3D              
1 43010U 17072A   26036.92183385 -.00000136  00000+0 -42477-4 0  9990
2 43010  98.9978   9.0818 0002482  71.1467 288.9978 14.19703866426365
NOAA 20 (JPSS-1)        
1 43013U 17073A   26036.89850759  .00000117  00000+0  76333-4 0  9991
2 43013  98.7658 337.6089 0000409  14.3822 345.7365 14.19527436425843
GOES 17                 
1 43226U 18022A   26036.89493492 -.00000183  00000+0  00000+0 0  9996
2 43226   0.5999  88.1649 0002791 212.0745  68.4140  1.00269985 29102
FENGYUN 2H              
1 43491U 18050A   26036.92830177 -.00000127  00000+0  00000+0 0  9998
2 43491   2.6929  80.7036 0002222 171.5170 296.8857  1.00274837 28125
METOP-C                 
1 43689U 18087A   26036.93561165  .00000168  00000+0  96770-4 0  9994
2 43689  98.6835  98.8356 0001603 145.0083 215.1200 14.21509744376184
GEO-KOMPSAT-2A          
1 43823U 18100A   26036.77930712  .00000000  00000+0  00000+0 0  9991
2 43823   0.0144  98.2867 0001430 304.5964 141.8221  1.00265989 26311
METEOR-M2 2             
1 44387U 19038A   26036.95268459 -.00000038  00000+0  34123-5 0  9991
2 44387  98.9041  22.3774 0002138  56.4815 303.6567 14.24319636342612
ARKTIKA-M 1             
1 47719U 21016A   26035.90384421 -.00000136  00000+0  00000+0 0  9994
2 47719  63.1930  76.4940 7230705 269.3476  15.2984  2.00623094 36131
FENGYUN 3E              
1 49008U 21062A   26036.99165201  .00000106  00000+0  70823-4 0  9992
2 49008  98.7496  41.8641 0002623  98.1168 262.0306 14.19889413237960
GOES 18                 
1 51850U 22021A   26036.67155227  .00000000  00000+0  00000+0 0  9996
2 51850   0.0235  93.9598 0000886 292.5085 214.1131  1.00271712  5275
NOAA 21 (JPSS-2)        
1 54234U 22150A   26036.93356244  .00000144  00000+0  89237-4 0  9992
2 54234  98.7521 337.5704 0001352 171.4427 188.6772 14.19543418167922
METEOSAT-12 (MTG-I1)    
1 54743U 22170C   26036.91261501 -.00000009  00000+0  00000+0 0  9995
2 54743   0.7109  25.0587 0002062 272.8201 166.3507  1.00270471 11665
TIANMU-1 03             
1 55973U 23039A   26036.98447091  .00028050  00000+0  63712-3 0  9991
2 55973  97.5144 206.2687 0002853 200.5818 159.5315 15.42991579160574
TIANMU-1 04             
1 55974U 23039B   26036.95122396  .00029659  00000+0  66490-3 0  9999
2 55974  97.5074 205.4043 0003582 198.3217 161.7902 15.43370596160579
TIANMU-1 05             
1 55975U 23039C   26036.95987130  .00028485  00000+0  64816-3 0  9991
2 55975  97.5122 205.9063 0002403 226.1532 133.9517 15.42936581160554
TIANMU-1 06             
1 55976U 23039D   26036.95170763  .00029289  00000+0  65586-3 0  9996
2 55976  97.5132 206.4097 0002793 220.4041 139.6999 15.43408507160575
FENGYUN 3G              
1 56232U 23055A   26036.92317772  .00043639  00000+0  70034-3 0  9999
2 56232  49.9940 302.8832 0009970 235.9312 124.0709 15.52512248159600
METEOR-M2 3             
1 57166U 23091A   26036.98853876  .00000030  00000+0  32065-4 0  9993
2 57166  98.6283  94.5399 0003976 176.2285 183.8925 14.24034343135843
TIANMU-1 07             
1 57399U 23101A   26036.91256979  .00014545  00000+0  51757-3 0  9991
2 57399  97.2785  90.5563 0002701 221.6790 138.4245 15.29063676141589
TIANMU-1 08             
1 57400U 23101B   26036.94752574  .00013730  00000+0  49032-3 0  9997
2 57400  97.2774  90.3742 0004410 230.4679 129.6172 15.28953255141581
TIANMU-1 09             
1 57401U 23101C   26036.93088457  .00013359  00000+0  47509-3 0  9993
2 57401  97.2732  89.8475 0003725 232.2905 127.7998 15.29100367141586
TIANMU-1 10             
1 57402U 23101D   26036.96533694  .00013876  00000+0  49334-3 0  9997
2 57402  97.2811  90.7896 0005425 236.8618 123.2102 15.29094110141589
FENGYUN 3F              
1 57490U 23111A   26036.90761741  .00000137  00000+0  84927-4 0  9999
2 57490  98.6989 109.2889 0001485 100.2786 259.8558 14.19911889130237
ARKTIKA-M 2             
1 58584U 23198A   26036.66117505  .00000157  00000+0  00000+0 0  9992
2 58584  63.2232 168.9051 6872102 267.8821  18.8359  2.00612793 15684
TIANMU-1 11             
1 58645U 23205A   26036.99590685  .00011265  00000+0  44740-3 0  9994
2 58645  97.3572  60.6679 0010967 105.4872 254.7578 15.25437236117518
TIANMU-1 12             
1 58646U 23205B   26036.96104310  .00011779  00000+0  46914-3 0  9993
2 58646  97.3559  60.4213 0009305  91.7714 268.4590 15.25345792117490
TIANMU-1 13             
1 58647U 23205C   26036.99295937  .00011807  00000+0  46955-3 0  9990
2 58647  97.3587  60.6776 0009475  76.6537 283.5757 15.25394684117498
TIANMU-1 14             
1 58648U 23205D   26036.97706060  .00011478  00000+0  45676-3 0  9996
2 58648  97.3521  59.9598 0010330  79.8960 280.3443 15.25372555117497
TIANMU-1 19             
1 58660U 23208A   26036.93374473  .00017061  00000+0  60490-3 0  9993
2 58660  97.4379 152.9085 0006135  67.8745 292.3146 15.29137412117256
TIANMU-1 20             
1 58661U 23208B   26036.94274313  .00016806  00000+0  57426-3 0  9998
2 58661  97.4317 153.4193 0008432  74.3627 285.8544 15.30328860117338
TIANMU-1 21             
1 58662U 23208C   26036.98169007  .00012334  00000+0  39831-3 0  9998
2 58662  97.4367 155.6159 0008207  69.1852 291.0268 15.32228502117451
TIANMU-1 22             
1 58663U 23208D   26036.94394917  .00015763  00000+0  56506-3 0  9992
2 58663  97.4373 152.9492 0005010  88.9036 271.2778 15.28801373117264
TIANMU-1 15             
1 58700U 24004A   26036.97462242  .00012551  00000+0  49982-3 0  9991
2 58700  97.4649 223.2699 0008447  90.7485 269.4721 15.25347436115761
TIANMU-1 16             
1 58701U 24004B   26036.95875432  .00012646  00000+0  50329-3 0  9991
2 58701  97.4589 222.6005 0006839  93.0671 267.1350 15.25376700115764
TIANMU-1 17             
1 58702U 24004C   26036.94185725  .00012633  00000+0  50229-3 0  9995
2 58702  97.4622 223.0218 0005992  93.8764 266.3159 15.25413887115759
TIANMU-1 18             
1 58703U 24004D   26036.99167869  .00012872  00000+0  51234-3 0  9992
2 58703  97.4640 223.2776 0005409  92.6409 267.5448 15.25377232115765
INSAT-3DS               
1 58990U 24033A   26036.92890844 -.00000156  00000+0  00000+0 0  9995
2 58990   0.0255 237.8119 0001859 101.6063 213.0813  1.00271485 45753
METEOR-M2 4             
1 59051U 24039A   26036.92453714  .00000085  00000+0  57784-4 0  9997
2 59051  98.6848 357.9913 0006888 181.0038 179.1128 14.22412200100607
GOES 19                 
1 60133U 24119A   26036.89779494 -.00000249  00000+0  00000+0 0  9998
2 60133   0.0035 283.2908 0001184  76.2243  24.5168  1.00271082  5645
FENGYUN 3H              
1 65815U 25219A   26036.90413142  .00000139  00000+0  85627-4 0  9999
2 65815  98.6648 340.3151 0001588  87.2280 272.9078 14.19923870 18754
